{
  "type": "FeatureCollection",
  "features": [
    {
      "type": "Feature",
      "properties": {
        "norad_id": 25590,
        "name": "COSMOS 2361",
        "group": "musson",
        "lat": 62.89596766830624,
        "lon": 151.01312318533542,
        "alt_km": 1001.6616116595433,
        "timestamp": "2025-12-11T10:53:16.156313+00:00",
        "meta_object_name": "COSMOS 2361",
        "meta_object_id": "1998-076A",
        "meta_epoch": "2025-12-11T01:53:57.122304",
        "meta_mean_motion": 13.73217239,
        "meta_eccentricity": 0.0030049,
        "meta_inclination": 82.9338,
        "meta_ra_of_asc_node": 345.3147,
        "meta_arg_of_pericenter": 270.423,
        "meta_mean_anomaly": 155.4616,
        "meta_ephemeris_type": 0,
        "meta_classification_type": "U",
        "meta_norad_cat_id": 25590,
        "meta_element_set_no": 999,
        "meta_rev_at_epoch": 35088,
        "meta_bstar": 8.6975e-05,
        "meta_mean_motion_dot": 9.6e-07,
        "meta_mean_motion_ddot": 0,
        "tle_line1": "1 25590U 98076A   25345.07913336  .00000096  00000+0  86975-4 0  9995",
        "tle_line2": "2 25590  82.9338 345.3147 0030049 270.4230 155.4616 13.73217239350887"
      },
      "geometry": {
        "type": "Point",
        "coordinates": [
          151.01312318533542,
          62.89596766830624
        ]
      }
    },
    {
      "type": "Feature",
      "properties": {
        "norad_id": 26818,
        "name": "COSMOS 2378",
        "group": "musson",
        "lat": -4.627580897684335,
        "lon": -178.74547619237038,
        "alt_km": 966.4670102710206,
        "timestamp": "2025-12-11T10:53:16.156335+00:00",
        "meta_object_name": "COSMOS 2378",
        "meta_object_id": "2001-023A",
        "meta_epoch": "2025-12-11T03:19:42.892032",
        "meta_mean_motion": 13.7414181,
        "meta_eccentricity": 0.0032314,
        "meta_inclination": 82.9273,
        "meta_ra_of_asc_node": 0.9122,
        "meta_arg_of_pericenter": 209.4154,
        "meta_mean_anomaly": 218.0387,
        "meta_ephemeris_type": 0,
        "meta_classification_type": "U",
        "meta_norad_cat_id": 26818,
        "meta_element_set_no": 999,
        "meta_rev_at_epoch": 22901,
        "meta_bstar": 5.7444e-05,
        "meta_mean_motion_dot": 6.9e-07,
        "meta_mean_motion_ddot": 0,
        "tle_line1": "1 26818U 01023A   25345.13869088  .00000069  00000+0  57444-4 0  9995",
        "tle_line2": "2 26818  82.9273   0.9122 0032314 209.4154 218.0387 13.74141810229013"
      },
      "geometry": {
        "type": "Point",
        "coordinates": [
          -178.74547619237038,
          -4.627580897684335
        ]
      }
    },
    {
      "type": "Feature",
      "properties": {
        "norad_id": 27436,
        "name": "COSMOS 2389",
        "group": "musson",
        "lat": 26.286753743930003,
        "lon": -48.55899329724629,
        "alt_km": 952.273241816597,
        "timestamp": "2025-12-11T10:53:16.156349+00:00",
        "meta_object_name": "COSMOS 2389",
        "meta_object_id": "2002-026A",
        "meta_epoch": "2025-12-11T03:49:47.525376",
        "meta_mean_motion": 13.7515432,
        "meta_eccentricity": 0.0047658,
        "meta_inclination": 82.9501,
        "meta_ra_of_asc_node": 308.1544,
        "meta_arg_of_pericenter": 65.0314,
        "meta_mean_anomaly": 306.8574,
        "meta_ephemeris_type": 0,
        "meta_classification_type": "U",
        "meta_norad_cat_id": 27436,
        "meta_element_set_no": 999,
        "meta_rev_at_epoch": 18127,
        "meta_bstar": 8.5086e-05,
        "meta_mean_motion_dot": 9.8e-07,
        "meta_mean_motion_ddot": 0,
        "tle_line1": "1 27436U 02026A   25345.15957784  .00000098  00000+0  85086-4 0  9994",
        "tle_line2": "2 27436  82.9501 308.1544 0047658  65.0314 306.8574 13.75154320181276"
      },
      "geometry": {
        "type": "Point",
        "coordinates": [
          -48.55899329724629,
          26.286753743930003
        ]
      }
    },
    {
      "type": "Feature",
      "properties": {
        "norad_id": 27818,
        "name": "COSMOS 2398",
        "group": "musson",
        "lat": -7.959740738465235,
        "lon": -87.34568424620385,
        "alt_km": 1007.9366767460815,
        "timestamp": "2025-12-11T10:53:16.156361+00:00",
        "meta_object_name": "COSMOS 2398",
        "meta_object_id": "2003-023A",
        "meta_epoch": "2025-12-11T04:28:21.553248",
        "meta_mean_motion": 13.72385495,
        "meta_eccentricity": 0.0032524,
        "meta_inclination": 82.9484,
        "meta_ra_of_asc_node": 273.8429,
        "meta_arg_of_pericenter": 115.955,
        "meta_mean_anomaly": 356.5826,
        "meta_ephemeris_type": 0,
        "meta_classification_type": "U",
        "meta_norad_cat_id": 27818,
        "meta_element_set_no": 999,
        "meta_rev_at_epoch": 12795,
        "meta_bstar": 9.1115e-05,
        "meta_mean_motion_dot": 9.9e-07,
        "meta_mean_motion_ddot": 0,
        "tle_line1": "1 27818U 03023A   25345.18636057  .00000099  00000+0  91115-4 0  9997",
        "tle_line2": "2 27818  82.9484 273.8429 0032524 115.9550 356.5826 13.72385495127956"
      },
      "geometry": {
        "type": "Point",
        "coordinates": [
          -87.34568424620385,
          -7.959740738465235
        ]
      }
    },
    {
      "type": "Feature",
      "properties": {
        "norad_id": 28380,
        "name": "COSMOS 2407",
        "group": "musson",
        "lat": 9.409621526790122,
        "lon": 32.67163133195043,
        "alt_km": 989.6616039107139,
        "timestamp": "2025-12-11T10:53:16.156373+00:00",
        "meta_object_name": "COSMOS 2407",
        "meta_object_id": "2004-028A",
        "meta_epoch": "2025-12-11T03:38:19.095360",
        "meta_mean_motion": 13.7631341,
        "meta_eccentricity": 0.0040381,
        "meta_inclination": 82.9609,
        "meta_ra_of_asc_node": 214.0685,
        "meta_arg_of_pericenter": 59.155,
        "meta_mean_anomaly": 55.0944,
        "meta_ephemeris_type": 0,
        "meta_classification_type": "U",
        "meta_norad_cat_id": 28380,
        "meta_element_set_no": 999,
        "meta_rev_at_epoch": 7401,
        "meta_bstar": 6.7057e-05,
        "meta_mean_motion_dot": 8.1e-07,
        "meta_mean_motion_ddot": 0,
        "tle_line1": "1 28380U 04028A   25345.15160990  .00000081  00000+0  67057-4 0  9992",
        "tle_line2": "2 28380  82.9609 214.0685 0040381  59.1550  55.0944 13.76313410 74012"
      },
      "geometry": {
        "type": "Point",
        "coordinates": [
          32.67163133195043,
          9.409621526790122
        ]
      }
    },
    {
      "type": "Feature",
      "properties": {
        "norad_id": 28521,
        "name": "COSMOS 2414",
        "group": "musson",
        "lat": 19.192089441737206,
        "lon": -171.89849086783332,
        "alt_km": 952.6472031205076,
        "timestamp": "2025-12-11T10:53:16.156385+00:00",
        "meta_object_name": "COSMOS 2414",
        "meta_object_id": "2005-002A",
        "meta_epoch": "2025-12-11T00:24:46.967328",
        "meta_mean_motion": 13.87902562,
        "meta_eccentricity": 0.0040795,
        "meta_inclination": 82.9493,
        "meta_ra_of_asc_node": 185.9626,
        "meta_arg_of_pericenter": 144.5067,
        "meta_mean_anomaly": 215.8823,
        "meta_ephemeris_type": 0,
        "meta_classification_type": "U",
        "meta_norad_cat_id": 28521,
        "meta_element_set_no": 999,
        "meta_rev_at_epoch": 5771,
        "meta_bstar": 6.7585e-05,
        "meta_mean_motion_dot": 9.7e-07,
        "meta_mean_motion_ddot": 0,
        "tle_line1": "1 28521U 05002A   25345.01721027  .00000097  00000+0  67585-4 0  9994",
        "tle_line2": "2 28521  82.9493 185.9626 0040795 144.5067 215.8823 13.87902562 57716"
      },
      "geometry": {
        "type": "Point",
        "coordinates": [
          -171.89849086783332,
          19.192089441737206
        ]
      }
    },
    {
      "type": "Feature",
      "properties": {
        "norad_id": 32052,
        "name": "COSMOS 2429",
        "group": "musson",
        "lat": -32.70765240588727,
        "lon": 168.79518524071898,
        "alt_km": 1015.8394903402323,
        "timestamp": "2025-12-11T10:53:16.156396+00:00",
        "meta_object_name": "COSMOS 2429",
        "meta_object_id": "2007-038A",
        "meta_epoch": "2025-12-11T02:52:21.112320",
        "meta_mean_motion": 13.75149145,
        "meta_eccentricity": 0.003932,
        "meta_inclination": 82.9803,
        "meta_ra_of_asc_node": 344.5032,
        "meta_arg_of_pericenter": 42.2771,
        "meta_mean_anomaly": 318.1405,
        "meta_ephemeris_type": 0,
        "meta_classification_type": "U",
        "meta_norad_cat_id": 32052,
        "meta_element_set_no": 999,
        "meta_rev_at_epoch": 91580,
        "meta_bstar": 7.4294e-05,
        "meta_mean_motion_dot": 8.7e-07,
        "meta_mean_motion_ddot": 0,
        "tle_line1": "1 32052U 07038A   25345.11968880  .00000087  00000+0  74294-4 0  9994",
        "tle_line2": "2 32052  82.9803 344.5032 0039320  42.2771 318.1405 13.75149145915800"
      },
      "geometry": {
        "type": "Point",
        "coordinates": [
          168.79518524071898,
          -32.70765240588727
        ]
      }
    },
    {
      "type": "Feature",
      "properties": {
        "norad_id": 35635,
        "name": "COSMOS 2454",
        "group": "musson",
        "lat": 59.798713760446844,
        "lon": -178.11455392909127,
        "alt_km": 908.7395572056785,
        "timestamp": "2025-12-11T10:53:16.156407+00:00",
        "meta_object_name": "COSMOS 2454",
        "meta_object_id": "2009-039A",
        "meta_epoch": "2025-12-11T00:46:45.675840",
        "meta_mean_motion": 13.89928222,
        "meta_eccentricity": 0.0020475,
        "meta_inclination": 82.9554,
        "meta_ra_of_asc_node": 169.9392,
        "meta_arg_of_pericenter": 78.3145,
        "meta_mean_anomaly": 36.0602,
        "meta_ephemeris_type": 0,
        "meta_classification_type": "U",
        "meta_norad_cat_id": 35635,
        "meta_element_set_no": 999,
        "meta_rev_at_epoch": 83126,
        "meta_bstar": 6.5659e-05,
        "meta_mean_motion_dot": 9.7e-07,
        "meta_mean_motion_ddot": 0,
        "tle_line1": "1 35635U 09039A   25345.03247310  .00000097  00000+0  65659-4 0  9992",
        "tle_line2": "2 35635  82.9554 169.9392 0020475  78.3145  36.0602 13.89928222831265"
      },
      "geometry": {
        "type": "Point",
        "coordinates": [
          -178.11455392909127,
          59.798713760446844
        ]
      }
    },
    {
      "type": "Feature",
      "properties": {
        "norad_id": 36519,
        "name": "COSMOS 2463",
        "group": "musson",
        "lat": -5.129878769549568,
        "lon": -151.7066460474591,
        "alt_km": 1004.5056730517554,
        "timestamp": "2025-12-11T10:53:16.156418+00:00",
        "meta_object_name": "COSMOS 2463",
        "meta_object_id": "2010-017A",
        "meta_epoch": "2025-12-11T05:01:54.171264",
        "meta_mean_motion": 13.71649038,
        "meta_eccentricity": 0.0034821,
        "meta_inclination": 82.9614,
        "meta_ra_of_asc_node": 27.8371,
        "meta_arg_of_pericenter": 292.4602,
        "meta_mean_anomaly": 128.7739,
        "meta_ephemeris_type": 0,
        "meta_classification_type": "U",
        "meta_norad_cat_id": 36519,
        "meta_element_set_no": 999,
        "meta_rev_at_epoch": 78216,
        "meta_bstar": 5.9275e-05,
        "meta_mean_motion_dot": 6.8e-07,
        "meta_mean_motion_ddot": 0,
        "tle_line1": "1 36519U 10017A   25345.20965476  .00000068  00000+0  59275-4 0  9996",
        "tle_line2": "2 36519  82.9614  27.8371 0034821 292.4602 128.7739 13.71649038782160"
      },
      "geometry": {
        "type": "Point",
        "coordinates": [
          -151.7066460474591,
          -5.129878769549568
        ]
      }
    }
  ]
}